$$SOE
2460161.500000000, A.D. 2023-Aug-05 00:00:00.0000, 3.106405572575938E+08, 8.201876977524083E+08, 1.040119312219250E+08,
2460168.500000000, A.D. 2023-Aug-12 00:00:00.0000, 3.032203139757428E+08, 8.227725233765324E+08, 1.044611362691709E+08,
2460175.500000000, A.D. 2023-Aug-19 00:00:00.0000, 2.957787021469418E+08, 8.252991942281244E+08, 1.049029452412938E+08,
2460182.500000000, A.D. 2023-Aug-26 00:00:00.0000, 2.883162383033912E+08, 8.277675071107630E+08, 1.053373238224180E+08,
2460189.500000000, A.D. 2023-Sep-02 00:00:00.0000, 2.808334416726946E+08, 8.301772639708025E+08, 1.057642383669811E+08,
2460196.500000000, A.D. 2023-Sep-09 00:00:00.0000, 2.733308340937190E+08, 8.325282718391867E+08, 1.061836558956355E+08,
2460203.500000000, A.D. 2023-Sep-16 00:00:00.0000, 2.658089401137688E+08, 8.348203426015174E+08, 1.065955440595141E+08,
2460210.500000000, A.D. 2023-Sep-23 00:00:00.0000, 2.582682876835391E+08, 8.370532928832104E+08, 1.069998710581888E+08,
2460217.500000000, A.D. 2023-Sep-30 00:00:00.0000, 2.507094091104035E+08, 8.392269452405088E+08, 1.073966056398762E+08,
2460224.500000000, A.D. 2023-Oct-07 00:00:00.0000, 2.431328399164044E+08, 8.413411301143804E+08, 1.077857173555239E+08,
2460231.500000000, A.D. 2023-Oct-14 00:00:00.0000, 2.355391166407621E+08, 8.433956852339756E+08, 1.081671767007765E+08,
2460238.500000000, A.D. 2023-Oct-21 00:00:00.0000, 2.279287768155076E+08, 8.453904540724710E+08, 1.085409549808758E+08,
2460245.500000000, A.D. 2023-Oct-28 00:00:00.0000, 2.203023596900200E+08, 8.473252856154249E+08, 1.089070242140657E+08,
2460252.500000000, A.D. 2023-Nov-04 00:00:00.0000, 2.126604064544708E+08, 8.492000346711010E+08, 1.092653571254140E+08,
2460259.500000000, A.D. 2023-Nov-11 00:00:00.0000, 2.050034601396880E+08, 8.510145621227793E+08, 1.096159271659906E+08,
2460266.500000000, A.D. 2023-Nov-18 00:00:00.0000, 1.973320654128945E+08, 8.527687350587339E+08, 1.099587085322606E+08,
2460273.500000000, A.D. 2023-Nov-25 00:00:00.0000, 1.896467683421369E+08, 8.544624268024724E+08, 1.102936761810952E+08,
2460280.500000000, A.D. 2023-Dec-02 00:00:00.0000, 1.819481161576095E+08, 8.560955168320957E+08, 1.106208058370934E+08,
2460287.500000000, A.D. 2023-Dec-09 00:00:00.0000, 1.742366570877444E+08, 8.576678905299096E+08, 1.109400739803824E+08,
2460294.500000000, A.D. 2023-Dec-16 00:00:00.0000, 1.665129405576644E+08, 8.591794387749035E+08, 1.112514577896022E+08,
2460301.500000000, A.D. 2023-Dec-23 00:00:00.0000, 1.587775180985233E+08, 8.606300580655918E+08, 1.115549350642533E+08,
2460308.500000000, A.D. 2023-Dec-30 00:00:00.0000, 1.510309436276412E+08, 8.620196522224858E+08, 1.118504843349655E+08,
2460315.500000000, A.D. 2024-Jan-06 00:00:00.0000, 1.432737713270275E+08, 8.633481333092804E+08, 1.121380851311225E+08,
2460322.500000000, A.D. 2024-Jan-13 00:00:00.0000, 1.355065542929097E+08, 8.646154199657786E+08, 1.124177179669375E+08,
2460329.500000000, A.D. 2024-Jan-20 00:00:00.0000, 1.277298451798371E+08, 8.658214362373221E+08, 1.126893641856148E+08,
2460336.500000000, A.D. 2024-Jan-27 00:00:00.0000, 1.199441968107454E+08, 8.669661115529606E+08, 1.129530059007279E+08,
2460343.500000000, A.D. 2024-Feb-03 00:00:00.0000, 1.121501623246591E+08, 8.680493809036757E+08, 1.132086259963327E+08,
2460350.500000000, A.D. 2024-Feb-10 00:00:00.0000, 1.043482951394085E+08, 8.690711849295084E+08, 1.134562081363686E+08,
2460357.500000000, A.D. 2024-Feb-17 00:00:00.0000, 9.653914886808303E+07, 8.700314699235111E+08, 1.136957367710952E+08,
2460364.500000000, A.D. 2024-Feb-24 00:00:00.0000, 8.872327722518726E+07, 8.709301877673140E+08, 1.139271971383339E+08,
2460371.500000000, A.D. 2024-Mar-02 00:00:00.0000, 8.090123395187952E+07, 8.717672957657841E+08, 1.141505752540583E+08,
2460378.500000000, A.D. 2024-Mar-09 00:00:00.0000, 7.307357289911908E+07, 8.725427563179214E+08, 1.143658578743797E+08,
2460385.500000000, A.D. 2024-Mar-16 00:00:00.0000, 6.524084866404025E+07, 8.732565366212850E+08, 1.145730324087509E+08,
2460392.500000000, A.D. 2024-Mar-23 00:00:00.0000, 5.740361767603017E+07, 8.739086095190752E+08, 1.147720868844869E+08,
2460399.500000000, A.D. 2024-Mar-30 00:00:00.0000, 4.956243749148120E+07, 8.744989554630666E+08, 1.149630101659522E+08,
2460406.500000000, A.D. 2024-Apr-06 00:00:00.0000, 4.171786455326141E+07, 8.750275622245893E+08, 1.151457921296829E+08,
2460413.500000000, A.D. 2024-Apr-13 00:00:00.0000, 3.387045396590992E+07, 8.754944231900165E+08, 1.153204235380951E+08,
2460420.500000000, A.D. 2024-Apr-20 00:00:00.0000, 2.602076033445852E+07, 8.758995369176148E+08, 1.154868959179058E+08,
2460427.500000000, A.D. 2024-Apr-27 00:00:00.0000, 1.816933814996671E+07, 8.762429073944010E+08, 1.156452015365652E+08,
2460434.500000000, A.D. 2024-May-04 00:00:00.0000, 1.031674180972163E+07, 8.765245442896667E+08, 1.157953334112117E+08,
2460441.500000000, A.D. 2024-May-11 00:00:00.0000, 2.463525510464935E+06, 8.767444631035633E+08, 1.159372853200727E+08,
2460448.500000000, A.D. 2024-May-18 00:00:00.0000, -5.389756903335276E+06, 8.769026852326598E+08, 1.160710518107030E+08,
2460455.500000000, A.D. 2024-May-25 00:00:00.0000, -1.324255211140099E+07, 8.769992379456947E+08, 1.161966282023922E+08,
2460462.500000000, A.D. 2024-Jun-01 00:00:00.0000, -2.109430744984501E+07, 8.770341542124174E+08, 1.163140105727758E+08,
2460469.500000000, A.D. 2024-Jun-08 00:00:00.0000, -2.894447075724798E+07, 8.770074723628651E+08, 1.164231957044147E+08,
2460476.500000000, A.D. 2024-Jun-15 00:00:00.0000, -3.679248953505900E+07, 8.769192361224241E+08, 1.165241809995019E+08,
2460483.500000000, A.D. 2024-Jun-22 00:00:00.0000, -4.463781042747265E+07, 8.767694961980820E+08, 1.166169645512002E+08,
2460490.500000000, A.D. 2024-Jun-29 00:00:00.0000, -5.247988114231180E+07, 8.765583115951263E+08, 1.167015454176273E+08,
2460497.500000000, A.D. 2024-Jul-06 00:00:00.0000, -6.031815216801102E+07, 8.762857481931121E+08, 1.167779236541381E+08,
2460504.500000000, A.D. 2024-Jul-13 00:00:00.0000, -6.815207633760847E+07, 8.759518774054109E+08, 1.168461001560958E+08,
2460511.500000000, A.D. 2024-Jul-20 00:00:00.0000, -7.598110822538018E+07, 8.755567760713074E+08, 1.169060765882682E+08,
2460518.500000000, A.D. 2024-Jul-27 00:00:00.0000, -8.380470403204162E+07, 8.751005266212986E+08, 1.169578553826288E+08,
2460525.500000000, A.D. 2024-Aug-03 00:00:00.0000, -9.162232168553816E+07, 8.745832171407845E+08, 1.170014397488280E+08,
2460532.500000000, A.D. 2024-Aug-10 00:00:00.0000, -9.943342099160571E+07, 8.740049413279330E+08, 1.170368336816315E+08,
2460539.500000000, A.D. 2024-Aug-17 00:00:00.0000, -1.072374637867188E+08, 8.733657983677647E+08, 1.170640419625695E+08,
2460546.500000000, A.D. 2024-Aug-24 00:00:00.0000, -1.150339140655412E+08, 8.726658927005701E+08, 1.170830701511822E+08,
2460553.500000000, A.D. 2024-Aug-31 00:00:00.0000, -1.228222379672236E+08, 8.719053336235425E+08, 1.170939245499715E+08,
2460560.500000000, A.D. 2024-Sep-07 00:00:00.0000, -1.306019032550416E+08, 8.710842348523448E+08, 1.170966121196008E+08,
2460567.500000000, A.D. 2024-Sep-14 00:00:00.0000, -1.383723782041294E+08, 8.702027150388526E+08, 1.170911404176659E+08,
2460574.500000000, A.D. 2024-Sep-21 00:00:00.0000, -1.461331319260622E+08, 8.692608996579710E+08, 1.170775177806333E+08,
2460581.500000000, A.D. 2024-Sep-28 00:00:00.0000, -1.538836366176695E+08, 8.682589210359123E+08, 1.170557535296749E+08,
2460588.500000000, A.D. 2024-Oct-05 00:00:00.0000, -1.616233680644609E+08, 8.671969165216256E+08, 1.170258578637957E+08,
2460595.500000000, A.D. 2024-Oct-12 00:00:00.0000, -1.693518047593687E+08, 8.660750277817535E+08, 1.169878417168060E+08,
2460602.500000000, A.D. 2024-Oct-19 00:00:00.0000, -1.770684273876659E+08, 8.648934009485600E+08, 1.169417167165607E+08,
2460609.500000000, A.D. 2024-Oct-26 00:00:00.0000, -1.847727187103385E+08, 8.636521868196138E+08, 1.168874951839207E+08,
2460616.500000000, A.D. 2024-Nov-02 00:00:00.0000, -1.924641635884629E+08, 8.623515409610703E+08, 1.168251901357104E+08,
2460623.500000000, A.D. 2024-Nov-09 00:00:00.0000, -2.001422490518511E+08, 8.609916237355418E+08, 1.167548152845376E+08,
2460630.500000000, A.D. 2024-Nov-16 00:00:00.0000, -2.078064643858966E+08, 8.595726002551455E+08, 1.166763850331749E+08,
2460637.500000000, A.D. 2024-Nov-23 00:00:00.0000, -2.154563011895352E+08, 8.580946402101386E+08, 1.165899144551890E+08,
2460644.500000000, A.D. 2024-Nov-30 00:00:00.0000, -2.230912531958858E+08, 8.565579175307717E+08, 1.164954192393188E+08,
2460651.500000000, A.D. 2024-Dec-07 00:00:00.0000, -2.307108154360415E+08, 8.549626103032645E+08, 1.163929155936123E+08,
2460658.500000000, A.D. 2024-Dec-14 00:00:00.0000, -2.383144834345468E+08, 8.533089021641587E+08, 1.162824202726524E+08,
2460665.500000000, A.D. 2024-Dec-21 00:00:00.0000, -2.459017547549578E+08, 8.515969839325227E+08, 1.161639508392869E+08,
2460672.500000000, A.D. 2024-Dec-28 00:00:00.0000, -2.534721309228547E+08, 8.498270525125988E+08, 1.160375257375958E+08,
2460679.500000000, A.D. 2025-Jan-04 00:00:00.0000, -2.610251171291244E+08, 8.479993094431089E+08, 1.159031641332688E+08,
2460686.500000000, A.D. 2025-Jan-11 00:00:00.0000, -2.685602215347218E+08, 8.461139607532675E+08, 1.157608858243463E+08,
2460693.500000000, A.D. 2025-Jan-18 00:00:00.0000, -2.760769550936411E+08, 8.441712172068003E+08, 1.156107112315894E+08,
2460700.500000000, A.D. 2025-Jan-25 00:00:00.0000, -2.835748316504061E+08, 8.421712944594095E+08, 1.154526614076153E+08,
2460707.500000000, A.D. 2025-Feb-01 00:00:00.0000, -2.910533681224046E+08, 8.401144130995088E+08, 1.152867580452069E+08,
2460714.500000000, A.D. 2025-Feb-08 00:00:00.0000, -2.985120847085230E+08, 8.380007985918566E+08, 1.151130234812744E+08,
2460721.500000000, A.D. 2025-Feb-15 00:00:00.0000, -3.059505050951786E+08, 8.358306811040107E+08, 1.149314806923956E+08,
2460728.500000000, A.D. 2025-Feb-22 00:00:00.0000, -3.133681565605172E+08, 8.336042951516333E+08, 1.147421532677565E+08,
$$EOE